[{"OBJECT_NAME":"STARLINK-36317","OBJECT_ID":"2026-026R","EPOCH":"2026-03-09T22:00:01.999584","MEAN_MOTION":15.48735055,"ECCENTRICITY":0.00018531,"INCLINATION":97.285,"RA_OF_ASC_NODE":123.5111,"ARG_OF_PERICENTER":76.5703,"MEAN_ANOMALY":154.3041,"EPHEMERIS_TYPE":0,"CLASSIFICATION_TYPE":"U","NORAD_CAT_ID":67736,"ELEMENT_SET_NO":999,"REV_AT_EPOCH":535,"BSTAR":-0.039742564,"MEAN_MOTION_DOT":-0.01911481,"MEAN_MOTION_DDOT":0},{"OBJECT_NAME":"CHIPSAT","OBJECT_ID":"2003-002B","EPOCH":"2026-03-09T14:27:30.663072","MEAN_MOTION":15.44632189,"ECCENTRICITY":0.000777,"INCLINATION":94.0324,"RA_OF_ASC_NODE":287.2761,"ARG_OF_PERICENTER":153.1766,"MEAN_ANOMALY":206.9893,"EPHEMERIS_TYPE":0,"CLASSIFICATION_TYPE":"U","NORAD_CAT_ID":27643,"ELEMENT_SET_NO":999,"REV_AT_EPOCH":27180,"BSTAR":0.00041911,"MEAN_MOTION_DOT":0.00019516,"MEAN_MOTION_DDOT":0}]
